GLOBALSTAR M068         
1 32266U 07048D   25129.75825293 -.00000106  00000+0 -11718-4 0  9998
2 32266  51.9895  59.3983 0001554  52.0611 344.4568 12.62822465812705
GLOBALSTAR M079         
1 37188U 10054A   25129.53902966 -.00000102  00000+0  71954-5 0  9990
2 37188  52.0037 257.4358 0000776 145.6659 294.0935 12.62273899671573
GLOBALSTAR M074         
1 37189U 10054B   25129.81275728 -.00000107  00000+0 -19237-4 0  9992
2 37189  52.0016 255.9327 0000492 123.4321 359.5019 12.62274799672217
GLOBALSTAR M076         
1 37190U 10054C   25129.51219502 -.00000109  00000+0 -31620-4 0  9991
2 37190  52.0027 257.0130 0000490 146.3162 291.3533 12.62262429671895
GLOBALSTAR M077         
1 37191U 10054D   25129.42043150 -.00000087  00000+0  91123-4 0  9994
2 37191  52.0063 214.1399 0000395 138.0025 301.7384 12.62267819672256
GLOBALSTAR M075         
1 37192U 10054E   25129.76819606 -.00000087  00000+0  92649-4 0  9993
2 37192  51.9952 298.5138 0000747 102.9841 358.0021 12.62264576670995
GLOBALSTAR M073         
1 37193U 10054F   25129.53142634 -.00000088  00000+0  87355-4 0  9998
2 37193  52.0051 213.0256 0000412 156.6048 306.8935 12.62271257672952
GLOBALSTAR M083         
1 37739U 11033A   25129.47564551 -.00000084  00000+0  11301-3 0  9994
2 37739  51.9831 161.9789 0000326 130.6741  19.5397 12.62263704641965
GLOBALSTAR M088         
1 37740U 11033B   25129.29265655 -.00000110  00000+0 -32157-4 0  9993
2 37740  51.9740  68.0552 0000564  65.8525  93.6194 12.62265948637486
GLOBALSTAR M091         
1 37741U 11033C   25129.22907223 -.00000095  00000+0  47391-4 0  9998
2 37741  52.0019  31.7372 0000879  88.2566  81.3103 12.62267652638263
GLOBALSTAR M085         
1 37742U 11033D   25129.74983684 -.00000087  00000+0  94760-4 0  9994
2 37742  51.9884 341.2255 0000959 100.7050 336.7397 12.62268245638843
GLOBALSTAR M081         
1 37743U 11033E   25129.78097572 -.00000078  00000+0  14325-3 0  9999
2 37743  51.9978 343.8950 0000780 106.4333 351.9226 12.62263572638991
GLOBALSTAR M089         
1 37744U 11033F   25129.66218677 -.00000089  00000+0  82486-4 0  9994
2 37744  51.9934 298.4901 0000551  98.5893   0.8052 12.62269749639825
GLOBALSTAR M084         
1 38040U 11080A   25129.43974791 -.00000075  00000+0  16283-3 0  9993
2 38040  51.9983 166.4356 0000126 318.6564 148.6004 12.62265913617773
GLOBALSTAR M080         
1 38041U 11080B   25129.49916252 -.00000069  00000+0  19288-3 0  9999
2 38041  52.0036 167.8322 0000624  94.1704  53.3566 12.62262735617907
GLOBALSTAR M082         
1 38042U 11080C   25129.96115260 -.00000091  00000+0  72574-4 0  9995
2 38042  52.0052 121.8813 0000593  86.5395 291.5414 12.62266164618670
GLOBALSTAR M092         
1 38043U 11080D   25129.80729251 -.00000091  00000+0  69996-4 0  9994
2 38043  52.0075 212.7256 0000378 125.7836  33.0423 12.62264162617106
GLOBALSTAR M090         
1 38044U 11080E   25129.29398297 -.00000093  00000+0  59879-4 0  9991
2 38044  51.9862 117.7693 0000327  89.0058  16.0703 12.62270144618706
GLOBALSTAR M086         
1 38045U 11080F   25129.93775457 -.00000077  00000+0  15146-3 0  9990
2 38045  51.9875 116.3567 0000663 232.0108 160.3252 12.62270688618733
GLOBALSTAR M097         
1 39072U 13005A   25129.16536871 -.00000104  00000+0 -38330-5 0  9994
2 39072  52.0068  33.2161 0000601  91.7024 268.3911 12.62271874565882
GLOBALSTAR M093         
1 39073U 13005B   25129.85147911 -.00000096  00000+0  43753-4 0  9997
2 39073  51.9835  24.4911 0000691  91.3355 268.7591 12.62264386565923
GLOBALSTAR M094         
1 39074U 13005C   25129.85153449 -.00000095  00000+0  49795-4 0  9992
2 39074  51.9964 298.8363 0000916 125.5400 234.5552 12.62270731567534
GLOBALSTAR M096         
1 39075U 13005D   25129.86480472 -.00000080  00000+0  13308-3 0  9997
2 39075  52.0094 347.2813 0000951 105.8080 254.2892 12.62271152566458
GLOBALSTAR M078         
1 39076U 13005E   25129.28384300 -.00000116  00000+0 -70776-4 0  9991
2 39076  51.9877  73.6074 0001366  83.8171 276.2851 12.62261574565008
GLOBALSTAR M095         
1 39077U 13005F   25129.31030655 -.00000113  00000+0 -50972-4 0  9990
2 39077  51.9804  70.7432 0000847  95.4021 264.6942 12.62269482564862
GLOBALSTAR M087         
1 52888U 22064A   25129.73683038 -.00000098  00000+0  34908-4 0  9997
2 52888  51.9984 210.8600 0000549 132.4554 227.6359 12.62262921140189
